ONEWEB-0043             
1 45149U 20008U   24094.77729666 -.00000471  00000+0 -13866-2 0  9991
2 45149  87.8997 196.1153 0002026  90.3796 269.7564 13.10256122202830
ONEWEB-0044             
1 45150U 20008V   24094.80609039  .00000856  00000+0  24146-2 0  9996
2 45150  87.8992 196.1057 0001958  95.3309 264.8042 13.10444186203138
ONEWEB-0045             
1 45151U 20008W   24094.76569323  .00000540  00000+0  14871-2 0  9997
2 45151  87.9035 181.0143 0001834 106.9481 253.1848 13.11418357204970
ONEWEB-0047             
1 45152U 20008X   24094.79862614  .00000501  00000+0  14025-2 0  9998
2 45152  87.8997 196.1094 0001940 102.8526 257.2818 13.10162256202852
ONEWEB-0048             
1 45153U 20008Y   24094.79371468  .00000419  00000+0  11678-2 0  9990
2 45153  87.9001 196.1246 0001908 102.3062 257.8278 13.10184743202461
ONEWEB-0049             
1 45154U 20008Z   24094.79535538  .00000366  00000+0  10164-2 0  9991
2 45154  87.9005 196.1009 0002506  98.6988 261.4424 13.10174648202683
ONEWEB-0051             
1 45155U 20008AA  24094.76406783  .00000566  00000+0  15622-2 0  9994
2 45155  87.9036 181.0558 0001961 111.5537 248.5800 13.11418461205658
ONEWEB-0052             
1 45156U 20008AB  24094.79206641  .00000190  00000+0  50885-3 0  9993
2 45156  87.8999 196.0787 0002396  95.9457 264.1943 13.10190363202594
